NORAD_CAT_ID,OBJECT_NAME,OBJECT_TYPE,EPOCH,MEAN_MOTION,ECCENTRICITY,INCLINATION,RA_OF_ASC_NODE,ARG_OF_PERICENTER,MEAN_ANOMALY,BSTAR,MEAN_MOTION_DOT,MEAN_MOTION_DDOT,TLE_LINE0,TLE_LINE1,TLE_LINE2,SEMIMAJOR_AXIS,PERIOD,APOGEE,PERIGEE,DECAYED
52336.0,STARLINK-3823,PAYLOAD,2023-01-23 10:47:43,15.08844589,0.0001022,53.2134,292.3582,106.2203,253.8902,0.00063495,9.833e-05,0.0,0 STARLINK-3823,1 52336U 22045F   23023.44981244  .00009833  00000-0  63495-3 0  9991,2 52336  53.2134 292.3582 0001022 106.2203 253.8902 15.08844589 43355,6917.866,95.437,540.438,539.024,0.0
52336.0,STARLINK-3823,PAYLOAD,2023-01-24 02:41:34,15.08863487,0.0001147,53.2106,289.3891,114.5159,245.5953,0.0010729,0.00016839,0.0,0 STARLINK-3823,1 52336U 22045F   23024.11220900  .00016839  00000-0  10729-2 0  9996,2 52336  53.2106 289.3891 0001147 114.5159 245.5953 15.08863487 43456,6917.809,95.436,540.467,538.88,0.0
52336.0,STARLINK-3823,PAYLOAD,2023-01-25 02:32:22,15.08850258,0.0001242,53.2123,284.9242,91.2571,268.8563,0.00033217,5.004e-05,0.0,0 STARLINK-3823,1 52336U 22045F   23025.10581138  .00005004  00000-0  33217-3 0  9999,2 52336  53.2123 284.9242 0001242  91.2571 268.8563 15.08850258 43605,6917.849,95.437,540.573,538.855,0.0
52336.0,STARLINK-3823,PAYLOAD,2023-01-25 10:29:18,15.08836445,0.0001349,53.2122,283.4343,105.3074,254.8068,4.4768e-05,4.25e-06,0.0,0 STARLINK-3823,1 52336U 22045F   23025.43701620  .00000425  00000-0  44768-4 0  9991,2 52336  53.2122 283.4343 0001349 105.3074 254.8068 15.08836445 43655,6917.891,95.438,540.689,538.823,0.0
52336.0,STARLINK-3823,PAYLOAD,2023-01-25 23:12:23,15.08838053,0.0001022999999999,53.2121,281.0593,86.8839,273.22700000000003,0.00013689,1.891e-05,0.0,0 STARLINK-3823,1 52336U 22045F   23025.96693797  .00001891  00000-0  13689-3 0  9999,2 52336  53.2121 281.0593 0001023  86.8839 273.2270 15.08838053 43732,6917.886,95.438,540.4590000000001,539.044,0.0
52336.0,STARLINK-3823,PAYLOAD,2023-01-26 23:03:09,15.08854743,0.0001284,53.2118,276.5957,91.6114,268.5025,0.00046323,7.095e-05,0.0,0 STARLINK-3823,1 52336U 22045F   23026.96053233  .00007095  00000-0  46323-3 0  9998,2 52336  53.2118 276.5957 0001284  91.6114 268.5025 15.08854743 43885,6917.835,95.437,540.589,538.812,0.0
52336.0,STARLINK-3823,PAYLOAD,2023-01-27 11:46:15,15.08847214,0.0001311,53.2095,274.2193,88.4486,271.6657,0.00024817,3.665e-05,0.0,0 STARLINK-3823,1 52336U 22045F   23027.49045428  .00003665  00000-0  24817-3 0  9997,2 52336  53.2095 274.2193 0001311  88.4486 271.6657 15.08847214 43963,6917.858,95.437,540.63,538.816,0.0
52336.0,STARLINK-3823,PAYLOAD,2023-01-27 19:43:11,15.08836105,0.000104,53.2112,272.7318,92.7675,267.3437,1.35e-06,-2.66e-06,0.0,0 STARLINK-3823,1 52336U 22045F   23027.82165700 -.00000266  00000-0  13500-5 0  9994,2 52336  53.2112 272.7318 0001040  92.7675 267.3437 15.08836105 44014,6917.892,95.438,540.477,539.038,0.0
52336.0,STARLINK-3823,PAYLOAD,2023-01-27 21:18:34,15.08838039,0.0001032,53.211000000000006,272.4349,88.1372,271.9738,4.4747e-05,4.24e-06,0.0,0 STARLINK-3823,1 52336U 22045F   23027.88789639  .00000424  00000-0  44747-4 0  9994,2 52336  53.2110 272.4349 0001032  88.1372 271.9738 15.08838039 44021,6917.886,95.438,540.465,539.0369999999999,0.0
52336.0,STARLINK-3823,PAYLOAD,2023-01-28 13:12:25,15.08845097,0.0001095,53.2106,269.4602,90.2867,269.8251,-0.00019757,-3.431e-05,0.0,0 STARLINK-3823,1 52336U 22045F   23028.55029470 -.00003431  00000-0 -19757-3 0  9994,2 52336  53.2106 269.4602 0001095  90.2867 269.8251 15.08845097 44125,6917.865,95.437,540.487,538.972,0.0
52336.0,STARLINK-3823,PAYLOAD,2023-01-28 21:09:21,15.08843546,0.0001131,53.2111,267.9734,94.4679,265.6443,3.345e-05,2.45e-06,0.0,0 STARLINK-3823,1 52336U 22045F   23028.88149416  .00000245  00000-0  33450-4 0  9998,2 52336  53.2111 267.9734 0001131  94.4679 265.6443 15.08843546 44177,6917.87,95.437,540.517,538.952,0.0
52336.0,STARLINK-3823,PAYLOAD,2023-01-28 22:44:44,15.088455,0.0001108,53.2111,267.6765,89.2406,270.8713,6.7986e-05,7.94e-06,0.0,0 STARLINK-3823,1 52336U 22045F   23028.94773346  .00000794  00000-0  67986-4 0  9990,2 52336  53.2111 267.6765 0001108  89.2406 270.8713 15.08845500 44183,6917.864,95.437,540.495,538.962,0.0
52336.0,STARLINK-3823,PAYLOAD,2023-01-29 13:03:12,15.08835577,9.86e-05,53.2111,264.9999,90.7753,269.3352,0.00010461,1.377e-05,0.0,0 STARLINK-3823,1 52336U 22045F   23029.54389888  .00001377  00000-0  10461-3 0  9994,2 52336  53.2111 264.9999 0000986  90.7753 269.3352 15.08835577 44272,6917.894,95.438,540.441,539.077,0.0
52336.0,STARLINK-3823,PAYLOAD,2023-01-29 22:35:31,15.0883484,9.75e-05,53.2111,263.2156,91.0126,269.0978,9.562e-05,1.234e-05,0.0,0 STARLINK-3823,1 52336U 22045F   23029.94134056  .00001234  00000-0  95620-4 0  9996,2 52336  53.2111 263.2156 0000975  91.0126 269.0978 15.08834840 44335,6917.896,95.438,540.436,539.087,0.0
52336.0,STARLINK-3823,PAYLOAD,2023-01-30 14:29:23,15.0883637,9.78e-05,53.2111,260.2416,86.9039,273.2065,9.9745e-05,1.3e-05,0.0,0 STARLINK-3823,1 52336U 22045F   23030.60374143  .00001300  00000-0  99745-4 0  9990,2 52336  53.2111 260.2416 0000978  86.9039 273.2065 15.08836370 44435,6917.891,95.438,540.433,539.08,0.0
52336.0,STARLINK-3823,PAYLOAD,2023-01-30 17:40:09,15.08834126,0.0001038,53.211,259.6468,89.1115,270.9996,0.00013434,1.851e-05,0.0,0 STARLINK-3823,1 52336U 22045F   23030.73622276  .00001851  00000-0  13434-3 0  9998,2 52336  53.2110 259.6468 0001038  89.1115 270.9996 15.08834126 44457,6917.898,95.438,540.481,539.045,0.0
52336.0,STARLINK-3823,PAYLOAD,2023-01-31 12:44:47,15.08839164,0.0001052,53.2115,256.0783,81.9118,278.1993,0.00013615,1.88e-05,0.0,0 STARLINK-3823,1 52336U 22045F   23031.53110194  .00001880  00000-0  13615-3 0  9991,2 52336  53.2115 256.0783 0001052  81.9118 278.1993 15.08839164 44579,6917.883,95.438,540.476,539.02,0.0
52336.0,STARLINK-3823,PAYLOAD,2023-01-31 17:30:56,15.08840927,0.0001073,53.2114,255.1859,83.1201,276.9913,0.00017955,2.571e-05,0.0,0 STARLINK-3823,1 52336U 22045F   23031.72982073  .00002571  00000-0  17955-3 0  9994,2 52336  53.2114 255.1859 0001073  83.1201 276.9913 15.08840927 44603,6917.878,95.437,540.485,539.0,0.0
52336.0,STARLINK-3823,PAYLOAD,2023-02-01 09:24:47,15.08841855,0.0001148,53.2104,252.2117,84.829,275.2833,0.00011392,1.526e-05,0.0,0 STARLINK-3823,1 52336U 22045F   23032.39221973  .00001526  00000-0  11392-3 0  9991,2 52336  53.2104 252.2117 0001148  84.8290 275.2833 15.08841855 44701,6917.875,95.437,540.534,538.946,0.0
52336.0,STARLINK-3823,PAYLOAD,2023-02-01 17:21:43,15.08835857,0.000112,53.2104,250.7244,88.1968,271.9152,-4.0799e-10,-2.88e-06,0.0,0 STARLINK-3823,1 52336U 22045F   23032.72342300 -.00000288  00000-0 -40799-9 0  9991,2 52336  53.2104 250.7244 0001120  88.1968 271.9152 15.08835857 44751,6917.893,95.438,540.533,538.983,0.0
52336.0,STARLINK-3823,PAYLOAD,2023-02-02 12:26:21,15.08843998,0.0001143,53.2112,247.1557,79.9042,280.2079,7.9776e-05,9.82e-06,0.0,0 STARLINK-3823,1 52336U 22045F   23033.51830004  .00000982  00000-0  79776-4 0  9993,2 52336  53.2112 247.1557 0001143  79.9042 280.2079 15.08843998 44872,6917.868,95.437,540.524,538.942,0.0
52336.0,STARLINK-3823,PAYLOAD,2023-02-02 23:34:02,15.08848745,0.0001142,53.2113,245.0736,80.8541,279.258,9.4678e-05,1.22e-05,0.0,0 STARLINK-3823,1 52336U 22045F   23033.98197472  .00001220  00000-0  94678-4 0  9993,2 52336  53.2113 245.0736 0001142  80.8541 279.2580 15.08848745 44941,6917.854,95.437,540.509,538.929,0.0
52336.0,STARLINK-3823,PAYLOAD,2023-02-03 13:52:31,15.0883644,0.0001192,53.2109,242.3963,88.0005,272.1123,9.1207e-05,1.164e-05,0.0,0 STARLINK-3823,1 52336U 22045F   23034.57814228  .00001164  00000-0  91207-4 0  9996,2 52336  53.2109 242.3963 0001192  88.0005 272.1123 15.08836440 45033,6917.891,95.438,540.581,538.932,0.0
52336.0,STARLINK-3823,PAYLOAD,2023-02-03 17:03:17,15.0883707,0.0001183,53.2111,241.802,85.6408,274.4719,9.1946e-05,1.176e-05,0.0,0 STARLINK-3823,1 52336U 22045F   23034.71062215  .00001176  00000-0  91946-4 0  9996,2 52336  53.2111 241.8020 0001183  85.6408 274.4719 15.08837070 45052,6917.889,95.438,540.573,538.936,0.0
52336.0,STARLINK-3823,PAYLOAD,2023-02-04 13:43:18,15.08840759,0.0001161,53.2111,237.9351,93.2147,266.8978,3.7861e-05,3.15e-06,0.0,0 STARLINK-3823,1 52336U 22045F   23035.57174029  .00000315  00000-0  37861-4 0  9998,2 52336  53.2111 237.9351 0001161  93.2147 266.8978 15.08840759 45180,6917.878,95.438,540.546,538.94,0.0
52336.0,STARLINK-3823,PAYLOAD,2023-02-04 20:04:50,15.08843206,0.0001145,53.2115,236.7462,89.1166,270.9958,4.6959e-05,4.6e-06,0.0,0 STARLINK-3823,1 52336U 22045F   23035.83669773  .00000460  00000-0  46959-4 0  9991,2 52336  53.2115 236.7462 0001145  89.1166 270.9958 15.08843206 45220,6917.871,95.437,540.528,538.943,0.0
52336.0,STARLINK-3823,PAYLOAD,2023-02-05 13:34:05,15.08834948,0.000107,53.2119,233.4756,85.8076,274.3039,2.8051e-05,1.59e-06,0.0,0 STARLINK-3823,1 52336U 22045F   23036.56534397  .00000159  00000-0  28051-4 0  9993,2 52336  53.2119 233.4756 0001070  85.8076 274.3039 15.08834948 45337,6917.896,95.438,540.501,539.021,0.0
52336.0,STARLINK-3823,PAYLOAD,2023-02-05 19:55:38,15.08836515,0.0001021,53.2122,232.2859,85.5149,274.5959,2.8305e-05,1.63e-06,0.0,0 STARLINK-3823,1 52336U 22045F   23036.83030310  .00000163  00000-0  28305-4 0  9996,2 52336  53.2122 232.2859 0001021  85.5149 274.5959 15.08836515 45375,6917.891,95.438,540.462,539.05,0.0
52336.0,STARLINK-3823,PAYLOAD,2023-02-06 13:24:52,15.08838172,0.0001013,53.2122,229.0144,82.578,277.5327,6.6556e-05,7.72e-06,0.0,0 STARLINK-3823,1 52336U 22045F   23037.55894276  .00000772  00000-0  66556-4 0  9991,2 52336  53.2122 229.0144 0001013  82.5780 277.5327 15.08838172 45480,6917.886,95.438,540.452,539.05,0.0
52336.0,STARLINK-3823,PAYLOAD,2023-02-06 19:46:24,15.08853182,8.91e-05,53.2125,227.8251,80.128,279.9813,-9.4364e-05,-1.79e-05,0.0,0 STARLINK-3823,1 52336U 22045F   23037.82389595 -.00001790  00000-0 -94364-4 0  9995,2 52336  53.2125 227.8251 0000891  80.1280 279.9813 15.08853182 45529,6917.84,95.437,540.321,539.089,0.0
